[
    {
        "Altitude(m)": 607886.6923522591,
        "Argument of Periapsis(deg)": 0.0,
        "Eccentricity": 0.0,
        "Inclination(deg)": 60.0,
        "Latitude(deg)": 40.9984461020963,
        "Longitude(deg)": -10.027141353490336,
        "Mean Anomaly(deg)": 49.09089999999999,
        "RAAN(deg)": 60.0,
        "Satellite Name": "Test1 267",
        "Satellite Number": 267,
        "Semi-Major Axis(m)": 6980739.136638005,
        "Time(s)": 0
    },
    {
        "Altitude(m)": 607987.6068519958,
        "Argument of Periapsis(deg)": 0.00010418945913296404,
        "Eccentricity": 0.0,
        "Inclination(deg)": 60.0,
        "Latitude(deg)": 41.46353741041164,
        "Longitude(deg)": -9.522915454380902,
        "Mean Anomaly(deg)": 49.71100614546182,
        "RAAN(deg)": 59.99957995086026,
        "Satellite Name": "Test1 267",
        "Satellite Number": 267,
        "Semi-Major Axis(m)": 6980739.136638005,
        "Time(s)": 10
    }
]